BEIJING 1               
1 28890U 05043A   24013.13857129  .00000758  00000+0  16020-3 0  9996
2 28890  98.1804 137.3686 0015193 170.2302 189.9198 14.62087462971098
HJ-1A                   
1 33320U 08041A   24013.13857786  .00002165  00000+0  29769-3 0  9998
2 33320  97.6353  27.9267 0021078 156.6305 203.5870 14.79127407827287
HJ-1B                   
1 33321U 08041B   24013.18681129  .00001636  00000+0  22208-3 0  9993
2 33321  97.6339  32.4769 0038096 203.7245 156.2213 14.79644987827300
YAOGAN 4                
1 33446U 08061A   24012.78497250  .00002329  00000+0  32125-3 0  9997
2 33446  97.8701 307.8361 0016688  74.4335 285.8717 14.79034524814434
DEIMOS-1                
1 35681U 09041A   24013.10595326  .00001136  00000+0  18433-3 0  9990
2 35681  97.6752 203.4472 0002142 130.5755 229.5640 14.72930032776333
UK-DMC 2                
1 35683U 09041C   24013.10342850  .00001593  00000+0  25687-3 0  9990
2 35683  97.7558 167.4682 0001171  99.1431 260.9910 14.72745620776037
RISAT 1                 
1 38248U 12017A   24013.00028673  .00011727  00000+0  54651-3 0  9993
2 38248  97.5330  30.2426 0005094  77.3846 282.7958 15.20037249645845
DMC3-FM1                
1 40715U 15032A   24013.21698759  .00001295  00000+0  16476-3 0  9998
2 40715  97.7727 256.5243 0007308  84.3174 275.8873 14.83242948458451
DMC3-FM2                
1 40716U 15032B   24013.17278088  .00001305  00000+0  16589-3 0  9990
2 40716  97.7779 257.4491 0009231  88.0860 272.1411 14.83243986458444
DMC3-FM3                
1 40717U 15032C   24013.19445619  .00001341  00000+0  17029-3 0  9999
2 40717  97.7825 258.6611 0010697  85.2288 275.0147 14.83235917458459
